STARLINK-36439          
1 67624U 26020H   26052.57292176  .00288750  00000+0  17131-2 0  9993
2 67624  42.9985 240.0151 0001719 268.4980  91.5693 15.76410406  3541
STARLINK-36438          
1 67625U 26020J   26052.89630439  .00426135  00000+0  24792-2 0  9999
2 67625  42.9981 238.1445 0002234   1.1944 358.8931 15.76469430  3597
STARLINK-36436          
1 67626U 26020K   26052.91668981  .00159937  00000+0  97058-3 0  9995
2 67626  42.9994 237.6187 0001662 259.2215  18.4641 15.76276064  4856
STARLINK-36502          
1 67627U 26020L   26052.91668981 -.01803250  00000+0 -11294-1 0  9999
2 67627  42.9992 237.4706 0001618 271.1436  66.0358 15.78822934  4858
STARLINK-36532          
1 67628U 26020M   26052.00002315 -.01059876  00000+0 -56007-2 0  9992
2 67628  42.9990 243.0484 0001753 255.9501 269.5962 15.82335971  4706
STARLINK-36367          
1 67629U 26020N   26052.56197514  .00279525  00000+0  16431-2 0  9999
2 67629  42.9981 239.9262 0002655 262.3537  97.7031 15.76645475  3543
STARLINK-36416          
1 67630U 26020P   26052.89409861  .00455191  00000+0  26051-2 0  9992
2 67630  42.9981 238.1262 0005052 270.6348  89.3943 15.76756061  3590
STARLINK-36527          
1 67631U 26020Q   26052.91690129  .00188805  00000+0  87828-3 0  9990
2 67631  42.9984 237.4118 0001567 268.4425  91.6268 15.82051871  3606
STARLINK-36633          
1 67632U 26020R   26052.91668981  .00159267  00000+0  96667-3 0  9993
2 67632  42.9995 237.5565 0001714 259.4760  43.0908 15.76274379  4855
STARLINK-36637          
1 67633U 26020S   26052.89192049  .00323717  00000+0  19088-2 0  9992
2 67633  42.9981 238.1093 0001607 320.0844  39.9907 15.76450710  3591
STARLINK-36617          
1 67634U 26020T   26052.66235803  .00361859  00000+0  16589-2 0  9996
2 67634  42.9998 238.9420 0007515 299.3204  60.6916 15.81877180  3562
STARLINK-36627          
1 67635U 26020U   26052.88534293  .00350650  00000+0  20592-2 0  9992
2 67635  42.9989 238.0539 0002469 287.1813  72.8786 15.76467534  3594
