CCSDS_OMM_VERS = 2.0
CREATION_DATE  = 
ORIGINATOR     = 

OBJECT_NAME    = STARLINK-36439
OBJECT_ID      = 2026-020H
CENTER_NAME    = EARTH
REF_FRAME      = TEME
TIME_SYSTEM    = UTC
MEAN_ELEMENT_THEORY = SGP/SGP4

EPOCH          = 2026-02-21T13:45:00.440064
MEAN_MOTION    = 15.76410406
ECCENTRICITY   = .0001719
INCLINATION    = 42.9985
RA_OF_ASC_NODE = 240.0151
ARG_OF_PERICENTER = 268.4980
MEAN_ANOMALY   = 91.5693

EPHEMERIS_TYPE = 0
CLASSIFICATION_TYPE = U
NORAD_CAT_ID   = 67624
ELEMENT_SET_NO = 999
REV_AT_EPOCH   = 354
BSTAR          = .17131E-2
MEAN_MOTION_DOT = .28875E-2
MEAN_MOTION_DDOT = 0

CCSDS_OMM_VERS = 2.0
CREATION_DATE  = 
ORIGINATOR     = 

OBJECT_NAME    = STARLINK-36438
OBJECT_ID      = 2026-020J
CENTER_NAME    = EARTH
REF_FRAME      = TEME
TIME_SYSTEM    = UTC
MEAN_ELEMENT_THEORY = SGP/SGP4

EPOCH          = 2026-02-21T21:30:40.699296
MEAN_MOTION    = 15.76469430
ECCENTRICITY   = .00022343
INCLINATION    = 42.9981
RA_OF_ASC_NODE = 238.1445
ARG_OF_PERICENTER = 1.1944
MEAN_ANOMALY   = 358.8931

EPHEMERIS_TYPE = 0
CLASSIFICATION_TYPE = U
NORAD_CAT_ID   = 67625
ELEMENT_SET_NO = 999
REV_AT_EPOCH   = 359
BSTAR          = .24792085E-2
MEAN_MOTION_DOT = .426135E-2
MEAN_MOTION_DDOT = 0

CCSDS_OMM_VERS = 2.0
CREATION_DATE  = 
ORIGINATOR     = 

OBJECT_NAME    = STARLINK-36436
OBJECT_ID      = 2026-020K
CENTER_NAME    = EARTH
REF_FRAME      = TEME
TIME_SYSTEM    = UTC
MEAN_ELEMENT_THEORY = SGP/SGP4

EPOCH          = 2026-02-21T22:00:01.999584
MEAN_MOTION    = 15.76276064
ECCENTRICITY   = .00016629
INCLINATION    = 42.9994
RA_OF_ASC_NODE = 237.6187
ARG_OF_PERICENTER = 259.2215
MEAN_ANOMALY   = 18.4641

EPHEMERIS_TYPE = 0
CLASSIFICATION_TYPE = U
NORAD_CAT_ID   = 67626
ELEMENT_SET_NO = 999
REV_AT_EPOCH   = 485
BSTAR          = .97057512E-3
MEAN_MOTION_DOT = .159937E-2
MEAN_MOTION_DDOT = 0

CCSDS_OMM_VERS = 2.0
CREATION_DATE  = 
ORIGINATOR     = 

OBJECT_NAME    = STARLINK-36502
OBJECT_ID      = 2026-020L
CENTER_NAME    = EARTH
REF_FRAME      = TEME
TIME_SYSTEM    = UTC
MEAN_ELEMENT_THEORY = SGP/SGP4

EPOCH          = 2026-02-21T22:00:01.999584
MEAN_MOTION    = 15.78822934
ECCENTRICITY   = .00016189
INCLINATION    = 42.9992
RA_OF_ASC_NODE = 237.4706
ARG_OF_PERICENTER = 271.1436
MEAN_ANOMALY   = 66.0358

EPHEMERIS_TYPE = 0
CLASSIFICATION_TYPE = U
NORAD_CAT_ID   = 67627
ELEMENT_SET_NO = 999
REV_AT_EPOCH   = 485
BSTAR          = -.1129396E-1
MEAN_MOTION_DOT = -.180325E-1
MEAN_MOTION_DDOT = 0

CCSDS_OMM_VERS = 2.0
CREATION_DATE  = 
ORIGINATOR     = 

OBJECT_NAME    = STARLINK-36532
OBJECT_ID      = 2026-020M
CENTER_NAME    = EARTH
REF_FRAME      = TEME
TIME_SYSTEM    = UTC
MEAN_ELEMENT_THEORY = SGP/SGP4

EPOCH          = 2026-02-21T00:00:02.000160
MEAN_MOTION    = 15.82335971
ECCENTRICITY   = .00017538
INCLINATION    = 42.9990
RA_OF_ASC_NODE = 243.0484
ARG_OF_PERICENTER = 255.9501
MEAN_ANOMALY   = 269.5962

EPHEMERIS_TYPE = 0
CLASSIFICATION_TYPE = U
NORAD_CAT_ID   = 67628
ELEMENT_SET_NO = 999
REV_AT_EPOCH   = 470
BSTAR          = -.56006967E-2
MEAN_MOTION_DOT = -.1059876E-1
MEAN_MOTION_DDOT = 0

CCSDS_OMM_VERS = 2.0
CREATION_DATE  = 
ORIGINATOR     = 

OBJECT_NAME    = STARLINK-36367
OBJECT_ID      = 2026-020N
CENTER_NAME    = EARTH
REF_FRAME      = TEME
TIME_SYSTEM    = UTC
MEAN_ELEMENT_THEORY = SGP/SGP4

EPOCH          = 2026-02-21T13:29:14.652096
MEAN_MOTION    = 15.76645475
ECCENTRICITY   = .0002655
INCLINATION    = 42.9981
RA_OF_ASC_NODE = 239.9262
ARG_OF_PERICENTER = 262.3537
MEAN_ANOMALY   = 97.7031

EPHEMERIS_TYPE = 0
CLASSIFICATION_TYPE = U
NORAD_CAT_ID   = 67629
ELEMENT_SET_NO = 999
REV_AT_EPOCH   = 354
BSTAR          = .16431E-2
MEAN_MOTION_DOT = .279525E-2
MEAN_MOTION_DDOT = 0

CCSDS_OMM_VERS = 2.0
CREATION_DATE  = 
ORIGINATOR     = 

OBJECT_NAME    = STARLINK-36416
OBJECT_ID      = 2026-020P
CENTER_NAME    = EARTH
REF_FRAME      = TEME
TIME_SYSTEM    = UTC
MEAN_ELEMENT_THEORY = SGP/SGP4

EPOCH          = 2026-02-21T21:27:30.119904
MEAN_MOTION    = 15.76756061
ECCENTRICITY   = .00050527
INCLINATION    = 42.9981
RA_OF_ASC_NODE = 238.1262
ARG_OF_PERICENTER = 270.6348
MEAN_ANOMALY   = 89.3943

EPHEMERIS_TYPE = 0
CLASSIFICATION_TYPE = U
NORAD_CAT_ID   = 67630
ELEMENT_SET_NO = 999
REV_AT_EPOCH   = 359
BSTAR          = .26050935E-2
MEAN_MOTION_DOT = .455191E-2
MEAN_MOTION_DDOT = 0

CCSDS_OMM_VERS = 2.0
CREATION_DATE  = 
ORIGINATOR     = 

OBJECT_NAME    = STARLINK-36527
OBJECT_ID      = 2026-020Q
CENTER_NAME    = EARTH
REF_FRAME      = TEME
TIME_SYSTEM    = UTC
MEAN_ELEMENT_THEORY = SGP/SGP4

EPOCH          = 2026-02-21T22:00:20.271456
MEAN_MOTION    = 15.82051871
ECCENTRICITY   = .00015673
INCLINATION    = 42.9984
RA_OF_ASC_NODE = 237.4118
ARG_OF_PERICENTER = 268.4425
MEAN_ANOMALY   = 91.6268

EPHEMERIS_TYPE = 0
CLASSIFICATION_TYPE = U
NORAD_CAT_ID   = 67631
ELEMENT_SET_NO = 999
REV_AT_EPOCH   = 360
BSTAR          = .87828075E-3
MEAN_MOTION_DOT = .188805E-2
MEAN_MOTION_DDOT = 0

CCSDS_OMM_VERS = 2.0
CREATION_DATE  = 
ORIGINATOR     = 

OBJECT_NAME    = STARLINK-36633
OBJECT_ID      = 2026-020R
CENTER_NAME    = EARTH
REF_FRAME      = TEME
TIME_SYSTEM    = UTC
MEAN_ELEMENT_THEORY = SGP/SGP4

EPOCH          = 2026-02-21T22:00:01.999584
MEAN_MOTION    = 15.76274379
ECCENTRICITY   = .00017144
INCLINATION    = 42.9995
RA_OF_ASC_NODE = 237.5565
ARG_OF_PERICENTER = 259.4760
MEAN_ANOMALY   = 43.0908

EPHEMERIS_TYPE = 0
CLASSIFICATION_TYPE = U
NORAD_CAT_ID   = 67632
ELEMENT_SET_NO = 999
REV_AT_EPOCH   = 485
BSTAR          = .96666952E-3
MEAN_MOTION_DOT = .159267E-2
MEAN_MOTION_DDOT = 0

CCSDS_OMM_VERS = 2.0
CREATION_DATE  = 
ORIGINATOR     = 

OBJECT_NAME    = STARLINK-36637
OBJECT_ID      = 2026-020S
CENTER_NAME    = EARTH
REF_FRAME      = TEME
TIME_SYSTEM    = UTC
MEAN_ELEMENT_THEORY = SGP/SGP4

EPOCH          = 2026-02-21T21:24:21.930336
MEAN_MOTION    = 15.76450710
ECCENTRICITY   = .00016072
INCLINATION    = 42.9981
RA_OF_ASC_NODE = 238.1093
ARG_OF_PERICENTER = 320.0844
MEAN_ANOMALY   = 39.9907

EPHEMERIS_TYPE = 0
CLASSIFICATION_TYPE = U
NORAD_CAT_ID   = 67633
ELEMENT_SET_NO = 999
REV_AT_EPOCH   = 359
BSTAR          = .19088047E-2
MEAN_MOTION_DOT = .323717E-2
MEAN_MOTION_DDOT = 0

CCSDS_OMM_VERS = 2.0
CREATION_DATE  = 
ORIGINATOR     = 

OBJECT_NAME    = STARLINK-36617
OBJECT_ID      = 2026-020T
CENTER_NAME    = EARTH
REF_FRAME      = TEME
TIME_SYSTEM    = UTC
MEAN_ELEMENT_THEORY = SGP/SGP4

EPOCH          = 2026-02-21T15:53:47.733792
MEAN_MOTION    = 15.81877180
ECCENTRICITY   = .0007515
INCLINATION    = 42.9998
RA_OF_ASC_NODE = 238.9420
ARG_OF_PERICENTER = 299.3204
MEAN_ANOMALY   = 60.6916

EPHEMERIS_TYPE = 0
CLASSIFICATION_TYPE = U
NORAD_CAT_ID   = 67634
ELEMENT_SET_NO = 999
REV_AT_EPOCH   = 356
BSTAR          = .16589E-2
MEAN_MOTION_DOT = .361859E-2
MEAN_MOTION_DDOT = 0

CCSDS_OMM_VERS = 2.0
CREATION_DATE  = 
ORIGINATOR     = 

OBJECT_NAME    = STARLINK-36627
OBJECT_ID      = 2026-020U
CENTER_NAME    = EARTH
REF_FRAME      = TEME
TIME_SYSTEM    = UTC
MEAN_ELEMENT_THEORY = SGP/SGP4

EPOCH          = 2026-02-21T21:14:53.629152
MEAN_MOTION    = 15.76467534
ECCENTRICITY   = .00024692
INCLINATION    = 42.9989
RA_OF_ASC_NODE = 238.0539
ARG_OF_PERICENTER = 287.1813
MEAN_ANOMALY   = 72.8786

EPHEMERIS_TYPE = 0
CLASSIFICATION_TYPE = U
NORAD_CAT_ID   = 67635
ELEMENT_SET_NO = 999
REV_AT_EPOCH   = 359
BSTAR          = .20591882E-2
MEAN_MOTION_DOT = .35065E-2
MEAN_MOTION_DDOT = 0

